CZ-4B DEB
1 43430U 17034F   25334.34910052  .00011802  00000+0  10015-2 0  9990
2 43430  42.9922  81.3671 0129494  48.4571 312.7290 14.91605250446649